ONEWEB-0395             
1 50475U 21132G   24332.20574685  .00000468  00000+0  12856-2 0  9992
2 50475  87.8879 134.0594 0001484 107.0870 253.0420 13.11419242142670
ONEWEB-0396             
1 50476U 21132H   24331.30769577  .00000108  00000+0  24158-3 0  9999
2 50476  87.9104  88.4490 0001805 104.1690 255.9642 13.18687096146790
ONEWEB-0397             
1 50477U 21132J   24332.30830327  .00000072  00000+0  15079-3 0  9995
2 50477  87.9101  88.2510 0001868  98.1226 262.0118 13.18684042148174
ONEWEB-0398             
1 50478U 21132K   24331.41053845 -.00000492  00000+0 -14228-2 0  9991
2 50478  87.8876 134.1909 0001028 103.0186 257.1057 13.11415121141190
ONEWEB-0399             
1 50479U 21132L   24331.39698407 -.00000153  00000+0 -46848-3 0  9996
2 50479  87.8873 134.2131 0001854  96.1417 263.9922 13.11416268141180
ONEWEB-0400             
1 50480U 21132M   24331.30135822 -.00000074  00000+0 -22125-3 0  9990
2 50480  87.9097  88.4491 0001399 102.5872 257.5417 13.18684007146763
ONEWEB-0401             
1 50481U 21132N   24332.55806646  .00000084  00000+0  18033-3 0  9990
2 50481  87.9098  88.1934 0001882  96.2737 263.8609 13.18684024148214
ONEWEB-0402             
1 50482U 21132P   24331.76453994 -.00000070  00000+0 -20912-3 0  9993
2 50482  87.9095  88.3493 0002123  87.0235 273.1140 13.18685321146857
